STARLINK-3988           
1 52625U 22052AD  26068.92537128 -.00000376  00000+0 -55486-5 0  9990
2 52625  53.2177 268.0666 0001396  96.7561 263.3590 15.08836230211024
STARLINK-6085           
1 57115U 23090Q   26068.53746065  .00027564  00000+0  15302-2 0  9997
2 57115  42.9983 264.1938 0019382 205.4773 154.5119 15.13089153150525
